[{"OBJECT_NAME":"ONEWEB-0212","OBJECT_ID":"2021-045AA","EPOCH":"2025-11-23T09:34:14.694816","MEAN_MOTION":13.15549071,"ECCENTRICITY":0.0001902,"INCLINATION":87.898,"RA_OF_ASC_NODE":300.2406,"ARG_OF_PERICENTER":82.0904,"MEAN_ANOMALY":278.0442,"EPHEMERIS_TYPE":0,"CLASSIFICATION_TYPE":"U","NORAD_CAT_ID":48791,"ELEMENT_SET_NO":999,"REV_AT_EPOCH":21737,"BSTAR":0.0001248,"MEAN_MOTION_DOT":6.0e-7,"MEAN_MOTION_DDOT":0},{"OBJECT_NAME":"ONEWEB-0227","OBJECT_ID":"2021-045AB","EPOCH":"2025-11-23T09:33:05.357088","MEAN_MOTION":13.15547137,"ECCENTRICITY":0.0002064,"INCLINATION":87.897,"RA_OF_ASC_NODE":300.2527,"ARG_OF_PERICENTER":81.9639,"MEAN_ANOMALY":278.1725,"EPHEMERIS_TYPE":0,"CLASSIFICATION_TYPE":"U","NORAD_CAT_ID":48792,"ELEMENT_SET_NO":999,"REV_AT_EPOCH":21732,"BSTAR":0.0001875,"MEAN_MOTION_DOT":8.3e-7,"MEAN_MOTION_DDOT":0},{"OBJECT_NAME":"ONEWEB-0226","OBJECT_ID":"2021-045AC","EPOCH":"2025-11-23T09:23:58.605792","MEAN_MOTION":13.15547993,"ECCENTRICITY":0.0002189,"INCLINATION":87.8972,"RA_OF_ASC_NODE":300.2629,"ARG_OF_PERICENTER":89.2339,"MEAN_ANOMALY":270.9043,"EPHEMERIS_TYPE":0,"CLASSIFICATION_TYPE":"U","NORAD_CAT_ID":48793,"ELEMENT_SET_NO":999,"REV_AT_EPOCH":21729,"BSTAR":0.00041514,"MEAN_MOTION_DOT":1.69e-6,"MEAN_MOTION_DDOT":0},{"OBJECT_NAME":"ONEWEB-0224","OBJECT_ID":"2021-045AD","EPOCH":"2025-11-23T10:21:01.238976","MEAN_MOTION":13.15548139,"ECCENTRICITY":0.0002478,"INCLINATION":87.8968,"RA_OF_ASC_NODE":300.2901,"ARG_OF_PERICENTER":63.4542,"MEAN_ANOMALY":296.6842,"EPHEMERIS_TYPE":0,"CLASSIFICATION_TYPE":"U","NORAD_CAT_ID":48794,"ELEMENT_SET_NO":999,"REV_AT_EPOCH":21722,"BSTAR":-5.4355e-5,"MEAN_MOTION_DOT":-8.0e-8,"MEAN_MOTION_DDOT":0},{"OBJECT_NAME":"ONEWEB-0233","OBJECT_ID":"2021-045AE","EPOCH":"2025-11-23T10:27:39.434112","MEAN_MOTION":13.15547744,"ECCENTRICITY":0.0002243,"INCLINATION":87.8968,"RA_OF_ASC_NODE":300.2999,"ARG_OF_PERICENTER":80.9217,"MEAN_ANOMALY":279.2167,"EPHEMERIS_TYPE":0,"CLASSIFICATION_TYPE":"U","NORAD_CAT_ID":48795,"ELEMENT_SET_NO":999,"REV_AT_EPOCH":21724,"BSTAR":-6.8426e-5,"MEAN_MOTION_DOT":-1.3e-7,"MEAN_MOTION_DDOT":0},{"OBJECT_NAME":"ONEWEB-0190","OBJECT_ID":"2021-045AF","EPOCH":"2025-11-23T10:09:36.023904","MEAN_MOTION":13.15547035,"ECCENTRICITY":0.0002707,"INCLINATION":87.8965,"RA_OF_ASC_NODE":300.2643,"ARG_OF_PERICENTER":85.566,"MEAN_ANOMALY":274.578,"EPHEMERIS_TYPE":0,"CLASSIFICATION_TYPE":"U","NORAD_CAT_ID":48796,"ELEMENT_SET_NO":999,"REV_AT_EPOCH":21731,"BSTAR":-0.00014731,"MEAN_MOTION_DOT":-4.3e-7,"MEAN_MOTION_DDOT":0},{"OBJECT_NAME":"ONEWEB-0236","OBJECT_ID":"2021-045AG","EPOCH":"2025-11-23T10:34:42.330144","MEAN_MOTION":13.15547756,"ECCENTRICITY":0.0001741,"INCLINATION":87.8976,"RA_OF_ASC_NODE":300.271,"ARG_OF_PERICENTER":83.5257,"MEAN_ANOMALY":276.6072,"EPHEMERIS_TYPE":0,"CLASSIFICATION_TYPE":"U","NORAD_CAT_ID":48797,"ELEMENT_SET_NO":999,"REV_AT_EPOCH":21720,"BSTAR":0.00018049,"MEAN_MOTION_DOT":8.1e-7,"MEAN_MOTION_DDOT":0},{"OBJECT_NAME":"ONEWEB-0248","OBJECT_ID":"2021-045AH","EPOCH":"2025-11-23T07:13:55.255872","MEAN_MOTION":13.15548374,"ECCENTRICITY":0.0002461,"INCLINATION":87.8979,"RA_OF_ASC_NODE":300.2611,"ARG_OF_PERICENTER":79.3642,"MEAN_ANOMALY":280.7766,"EPHEMERIS_TYPE":0,"CLASSIFICATION_TYPE":"U","NORAD_CAT_ID":48798,"ELEMENT_SET_NO":999,"REV_AT_EPOCH":21734,"BSTAR":0.00098798,"MEAN_MOTION_DOT":3.85e-6,"MEAN_MOTION_DDOT":0},{"OBJECT_NAME":"ONEWEB-0225","OBJECT_ID":"2021-045AJ","EPOCH":"2025-11-23T09:35:23.246304","MEAN_MOTION":13.15548305,"ECCENTRICITY":0.000254,"INCLINATION":87.8972,"RA_OF_ASC_NODE":300.2676,"ARG_OF_PERICENTER":85.4851,"MEAN_ANOMALY":274.657,"EPHEMERIS_TYPE":0,"CLASSIFICATION_TYPE":"U","NORAD_CAT_ID":48799,"ELEMENT_SET_NO":999,"REV_AT_EPOCH":21736,"BSTAR":9.3042e-5,"MEAN_MOTION_DOT":4.8e-7,"MEAN_MOTION_DDOT":0},{"OBJECT_NAME":"ONEWEB-0215","OBJECT_ID":"2021-045AK","EPOCH":"2025-11-23T08:52:02.107776","MEAN_MOTION":13.15548399,"ECCENTRICITY":0.000259,"INCLINATION":87.8989,"RA_OF_ASC_NODE":300.2313,"ARG_OF_PERICENTER":83.3904,"MEAN_ANOMALY":276.7521,"EPHEMERIS_TYPE":0,"CLASSIFICATION_TYPE":"U","NORAD_CAT_ID":48800,"ELEMENT_SET_NO":999,"REV_AT_EPOCH":21723,"BSTAR":0.00040901,"MEAN_MOTION_DOT":1.67e-6,"MEAN_MOTION_DDOT":0},{"OBJECT_NAME":"ONEWEB-0216","OBJECT_ID":"2021-045AL","EPOCH":"2025-11-23T09:05:43.031328","MEAN_MOTION":13.15547586,"ECCENTRICITY":0.0001953,"INCLINATION":87.8974,"RA_OF_ASC_NODE":300.2631,"ARG_OF_PERICENTER":89.5718,"MEAN_ANOMALY":270.5636,"EPHEMERIS_TYPE":0,"CLASSIFICATION_TYPE":"U","NORAD_CAT_ID":48801,"ELEMENT_SET_NO":999,"REV_AT_EPOCH":21724,"BSTAR":0.00055129,"MEAN_MOTION_DOT":2.2e-6,"MEAN_MOTION_DDOT":0},{"OBJECT_NAME":"ONEWEB-0239","OBJECT_ID":"2021-045AM","EPOCH":"2025-11-23T09:12:34.218432","MEAN_MOTION":13.15548908,"ECCENTRICITY":0.0002636,"INCLINATION":87.8972,"RA_OF_ASC_NODE":300.2771,"ARG_OF_PERICENTER":75.3143,"MEAN_ANOMALY":284.8279,"EPHEMERIS_TYPE":0,"CLASSIFICATION_TYPE":"U","NORAD_CAT_ID":48802,"ELEMENT_SET_NO":999,"REV_AT_EPOCH":21728,"BSTAR":0.00057673,"MEAN_MOTION_DOT":2.3e-6,"MEAN_MOTION_DDOT":0},{"OBJECT_NAME":"ONEWEB-0249","OBJECT_ID":"2021-060A","EPOCH":"2025-11-23T09:42:13.777632","MEAN_MOTION":13.16593058,"ECCENTRICITY":0.0002083,"INCLINATION":87.9027,"RA_OF_ASC_NODE":269.7579,"ARG_OF_PERICENTER":77.5949,"MEAN_ANOMALY":282.5414,"EPHEMERIS_TYPE":0,"CLASSIFICATION_TYPE":"U","NORAD_CAT_ID":48967,"ELEMENT_SET_NO":999,"REV_AT_EPOCH":21253,"BSTAR":-0.00015906,"MEAN_MOTION_DOT":-4.8e-7,"MEAN_MOTION_DDOT":0},{"OBJECT_NAME":"ONEWEB-0250","OBJECT_ID":"2021-060B","EPOCH":"2025-11-23T08:31:08.380704","MEAN_MOTION":13.25819166,"ECCENTRICITY":0.0002328,"INCLINATION":87.9024,"RA_OF_ASC_NODE":268.1969,"ARG_OF_PERICENTER":51.9351,"MEAN_ANOMALY":308.1995,"EPHEMERIS_TYPE":0,"CLASSIFICATION_TYPE":"U","NORAD_CAT_ID":48968,"ELEMENT_SET_NO":999,"REV_AT_EPOCH":21294,"BSTAR":0.00024191,"MEAN_MOTION_DOT":1.19e-6,"MEAN_MOTION_DDOT":0},{"OBJECT_NAME":"ONEWEB-0252","OBJECT_ID":"2021-060D","EPOCH":"2025-11-23T08:38:24.326592","MEAN_MOTION":13.16594459,"ECCENTRICITY":0.0002002,"INCLINATION":87.9025,"RA_OF_ASC_NODE":269.7597,"ARG_OF_PERICENTER":85.259,"MEAN_ANOMALY":274.877,"EPHEMERIS_TYPE":0,"CLASSIFICATION_TYPE":"U","NORAD_CAT_ID":48970,"ELEMENT_SET_NO":999,"REV_AT_EPOCH":21257,"BSTAR":0.00018841,"MEAN_MOTION_DOT":8.5e-7,"MEAN_MOTION_DDOT":0},{"OBJECT_NAME":"ONEWEB-0253","OBJECT_ID":"2021-060E","EPOCH":"2025-11-23T08:22:26.908320","MEAN_MOTION":13.16594066,"ECCENTRICITY":0.0002147,"INCLINATION":87.9027,"RA_OF_ASC_NODE":269.7659,"ARG_OF_PERICENTER":79.2259,"MEAN_ANOMALY":280.9114,"EPHEMERIS_TYPE":0,"CLASSIFICATION_TYPE":"U","NORAD_CAT_ID":48971,"ELEMENT_SET_NO":999,"REV_AT_EPOCH":21250,"BSTAR":-5.4696e-5,"MEAN_MOTION_DOT":-8.0e-8,"MEAN_MOTION_DDOT":0},{"OBJECT_NAME":"ONEWEB-0254","OBJECT_ID":"2021-060F","EPOCH":"2025-11-23T08:36:07.754976","MEAN_MOTION":13.16595096,"ECCENTRICITY":0.0002296,"INCLINATION":87.9032,"RA_OF_ASC_NODE":269.7549,"ARG_OF_PERICENTER":74.3943,"MEAN_ANOMALY":285.7441,"EPHEMERIS_TYPE":0,"CLASSIFICATION_TYPE":"U","NORAD_CAT_ID":48972,"ELEMENT_SET_NO":999,"REV_AT_EPOCH":21250,"BSTAR":5.2059e-5,"MEAN_MOTION_DOT":3.3e-7,"MEAN_MOTION_DDOT":0}]
