ONEWEB-0212             
1 48791U 21045AA  25327.39878119  .00000060  00000+0  12480-3 0  9999
2 48791  87.8980 300.2406 0001902  82.0904 278.0442 13.15549071217374
ONEWEB-0227             
1 48792U 21045AB  25327.39797867  .00000083  00000+0  18750-3 0  9991
2 48792  87.8970 300.2527 0002064  81.9639 278.1725 13.15547137217322
ONEWEB-0226             
1 48793U 21045AC  25327.39165053  .00000169  00000+0  41514-3 0  9997
2 48793  87.8972 300.2629 0002189  89.2339 270.9043 13.15547993217293
ONEWEB-0224             
1 48794U 21045AD  25327.43126434 -.00000008  00000+0 -54355-4 0  9995
2 48794  87.8968 300.2901 0002478  63.4542 296.6842 13.15548139217221
ONEWEB-0233             
1 48795U 21045AE  25327.43587308 -.00000013  00000+0 -68426-4 0  9997
2 48795  87.8968 300.2999 0002243  80.9217 279.2167 13.15547744217242
ONEWEB-0190             
1 48796U 21045AF  25327.42333361 -.00000043  00000+0 -14731-3 0  9997
2 48796  87.8965 300.2643 0002707  85.5660 274.5780 13.15547035217314
ONEWEB-0236             
1 48797U 21045AG  25327.44076771  .00000081  00000+0  18049-3 0  9995
2 48797  87.8976 300.2710 0001741  83.5257 276.6072 13.15547756217204
ONEWEB-0248             
1 48798U 21045AH  25327.30133398  .00000385  00000+0  98798-3 0  9996
2 48798  87.8979 300.2611 0002461  79.3642 280.7766 13.15548374217347
ONEWEB-0225             
1 48799U 21045AJ  25327.39957461  .00000048  00000+0  93042-4 0  9995
2 48799  87.8972 300.2676 0002540  85.4851 274.6570 13.15548305217361
ONEWEB-0215             
1 48800U 21045AK  25327.36946884  .00000167  00000+0  40901-3 0  9999
2 48800  87.8989 300.2313 0002590  83.3904 276.7521 13.15548399217239
ONEWEB-0216             
1 48801U 21045AL  25327.37897027  .00000220  00000+0  55129-3 0  9993
2 48801  87.8974 300.2631 0001953  89.5718 270.5636 13.15547586217247
ONEWEB-0239             
1 48802U 21045AM  25327.38372938  .00000230  00000+0  57673-3 0  9991
2 48802  87.8972 300.2771 0002636  75.3143 284.8279 13.15548908217289
ONEWEB-0249             
1 48967U 21060A   25327.40432613 -.00000048  00000+0 -15906-3 0  9992
2 48967  87.9027 269.7579 0002083  77.5949 282.5414 13.16593058212538
ONEWEB-0250             
1 48968U 21060B   25327.35495811  .00000119  00000+0  24191-3 0  9999
2 48968  87.9024 268.1969 0002328  51.9351 308.1995 13.25819166212942
ONEWEB-0252             
1 48970U 21060D   25327.36000378  .00000085  00000+0  18841-3 0  9990
2 48970  87.9025 269.7597 0002002  85.2590 274.8770 13.16594459212578
ONEWEB-0253             
1 48971U 21060E   25327.34892255 -.00000008  00000+0 -54696-4 0  9998
2 48971  87.9027 269.7659 0002147  79.2259 280.9114 13.16594066212502
ONEWEB-0254             
1 48972U 21060F   25327.35842309  .00000033  00000+0  52059-4 0  9992
2 48972  87.9032 269.7549 0002296  74.3943 285.7441 13.16595096212508
